COMMENT,ORIGINATOR,NORAD_CAT_ID,OBJECT_NAME,OBJECT_TYPE,CLASSIFICATION_TYPE,INTLDES,EPOCH,EPOCH_MICROSECONDS,MEAN_MOTION,ECCENTRICITY,INCLINATION,RA_OF_ASC_NODE,ARG_OF_PERICENTER,MEAN_ANOMALY,EPHEMERIS_TYPE,ELEMENT_SET_NO,REV_AT_EPOCH,BSTAR,MEAN_MOTION_DOT,MEAN_MOTION_DDOT,FILE,TLE_LINE0,TLE_LINE1,TLE_LINE2,OBJECT_ID,OBJECT_NUMBER,SEMIMAJOR_AXIS,PERIOD,APOGEE,PERIGEE,DECAYED
"GENERATED VIA SPACETRACK.ORG API","18 SPCS","55092","SPACEBEE-166","PAYLOAD","U","23001CM","2023-01-29 21:39:21","336192","15.14466903","0.0019337","97.5","91.6288","122.6093","237.7008","0","999","413","0.00063537","0.00011684","0","3765015","0 SPACEBEE-166","1 55092U 23001CM  23029.90233028  .00011684  00000-0  63537-3 0  9997","2 55092  97.5000  91.6288 0019337 122.6093 237.7008 15.14466903  4138","2023-001CM","55092","6900.734","95.083","535.943","509.256","0"
"GENERATED VIA SPACETRACK.ORG API","18 SPCS","55092","SPACEBEE-166","PAYLOAD","U","23001CM","2023-01-30 13:30:47","94912","15.14481786","0.0019386","97.5","92.2801","120.3692","239.946","0","999","423","0.00058279","0.00010715","0","3765576","0 SPACEBEE-166","1 55092U 23001CM  23030.56304508  .00010715  00000-0  58279-3 0  9994","2 55092  97.5000  92.2801 0019386 120.3692 239.9460 15.14481786  4233","2023-001CM","55092","6900.689","95.082","535.932","509.177","0"
"GENERATED VIA SPACETRACK.ORG API","18 SPCS","55092","SPACEBEE-166","PAYLOAD","U","23001CM","2023-01-30 21:26:29","762592","15.14489227","0.0019433","97.5001","92.6057","119.2726","241.0452","0","999","428","0.00057492","0.00010571","0","3765849","0 SPACEBEE-166","1 55092U 23001CM  23030.89340003  .00010571  00000-0  57492-3 0  9996","2 55092  97.5001  92.6057 0019433 119.2726 241.0452 15.14489227  4287","2023-001CM","55092","6900.667","95.082","535.942","509.122","0"
"GENERATED VIA SPACETRACK.ORG API","18 SPCS","55092","SPACEBEE-166","PAYLOAD","U","23001CM","2023-01-31 05:22:12","282528","15.14497795","0.0019453","97.5","92.9313","118.1863","242.1337","0","999","433","0.00061007","0.00011225","0","3766101","0 SPACEBEE-166","1 55092U 23001CM  23031.22375327  .00011225  00000-0  61007-3 0  9995","2 55092  97.5000  92.9313 0019453 118.1863 242.1337 15.14497795  4335","2023-001CM","55092","6900.641","95.081","535.929","509.082","0"
"GENERATED VIA SPACETRACK.ORG API","18 SPCS","55092","SPACEBEE-166","PAYLOAD","U","23001CM","2023-01-31 13:17:54","649536","15.14506423","0.0019444","97.4999","93.2569","117.1418","243.1799","0","999","438","0.00067418","0.00012417","0","3766475","0 SPACEBEE-166","1 55092U 23001CM  23031.55410474  .00012417  00000-0  67418-3 0  9990","2 55092  97.4999  93.2569 0019444 117.1418 243.1799 15.14506423  4380","2023-001CM","55092","6900.614","95.080","535.897","509.062","0"
"GENERATED VIA SPACETRACK.ORG API","18 SPCS","55092","SPACEBEE-166","PAYLOAD","U","23001CM","2023-01-31 21:13:36","865344","15.14514264","0.001947","97.4999","93.5825","116.058","244.2659","0","999","443","0.00066717","0.0001229","0","3766747","0 SPACEBEE-166","1 55092U 23001CM  23031.88445446  .00012290  00000-0  66717-3 0  9993","2 55092  97.4999  93.5825 0019470 116.0580 244.2659 15.14514264  4430","2023-001CM","55092","6900.591","95.080","535.891","509.020","0"
"GENERATED VIA SPACETRACK.ORG API","18 SPCS","55092","SPACEBEE-166","PAYLOAD","U","23001CM","2023-02-01 09:54:44","22528","15.14527982","0.0019466","97.4997","94.1035","114.4772","245.8493","0","999","451","0.00066753","0.00012301","0","3767436","0 SPACEBEE-166","1 55092U 23001CM  23032.41300952  .00012301  00000-0  66753-3 0  9998","2 55092  97.4997  94.1035 0019466 114.4772 245.8493 15.14527982  4511","2023-001CM","55092","6900.549","95.079","535.847","508.981","0"
"GENERATED VIA SPACETRACK.ORG API","18 SPCS","55092","SPACEBEE-166","PAYLOAD","U","23001CM","2023-02-01 13:05:00","756096","15.14530807","0.0019465","97.4996","94.2337","114.06","246.2671","0","999","453","0.0006325","0.00011652","0","3767525","0 SPACEBEE-166","1 55092U 23001CM  23032.54514764  .00011652  00000-0  63250-3 0  9997","2 55092  97.4996  94.2337 0019465 114.0600 246.2671 15.14530807  4536","2023-001CM","55092","6900.540","95.079","535.837","508.973","0"
"GENERATED VIA SPACETRACK.ORG API","18 SPCS","55092","SPACEBEE-166","PAYLOAD","U","23001CM","2023-02-02 12:52:05","378304","15.14557312","0.0019399","97.4993","95.2105","110.9772","249.3538","0","999","468","0.00067087","0.00012373","0","3768366","0 SPACEBEE-166","1 55092U 23001CM  23033.53617336  .00012373  00000-0  67087-3 0  9999","2 55092  97.4993  95.2105 0019399 110.9772 249.3538 15.14557312  4680","2023-001CM","55092","6900.460","95.077","535.711","508.939","0"
"GENERATED VIA SPACETRACK.ORG API","18 SPCS","55092","SPACEBEE-166","PAYLOAD","U","23001CM","2023-02-02 22:22:54","828192","15.1456671","0.0019385","97.4991","95.6013","109.7212","250.6113","0","999","474","0.00063679","0.00011743","0","3768937","0 SPACEBEE-166","1 55092U 23001CM  23033.93257903  .00011743  00000-0  63679-3 0  9996","2 55092  97.4991  95.6013 0019385 109.7212 250.6113 15.14566710  4743","2023-001CM","55092","6900.431","95.077","535.673","508.920","0"
"GENERATED VIA SPACETRACK.ORG API","18 SPCS","55092","SPACEBEE-166","PAYLOAD","U","23001CM","2023-02-02 22:22:54","828192","15.1456671","0.0019385","97.4991","95.6013","109.7212","250.6113","0","999","474","0.00063679","0.00011743","0","3770323","0 SPACEBEE-166","1 55092U 23001CM  23033.93257903  .00011743  00000-0  63679-3 0  9996","2 55092  97.4991  95.6013 0019385 109.7212 250.6113 15.14566710  4743","2023-001CM","55092","6900.431","95.077","535.673","508.920","0"
"GENERATED VIA SPACETRACK.ORG API","18 SPCS","55092","SPACEBEE-166","PAYLOAD","U","23001CM","2023-02-04 09:15:53","971776","15.14611189","0.0019356","97.4987","97.0338","104.9457","255.3919","0","999","496","0.00084065","0.00015551","0","3771776","0 SPACEBEE-166","1 55092U 23001CM  23035.38604134  .00015551  00000-0  84065-3 0  9992","2 55092  97.4987  97.0338 0019356 104.9457 255.3919 15.14611189  4961","2023-001CM","55092","6900.296","95.074","535.517","508.805","0"
"GENERATED VIA SPACETRACK.ORG API","18 SPCS","55092","SPACEBEE-166","PAYLOAD","U","23001CM","2023-02-04 09:15:53","971776","15.14611189","0.0019356","97.4987","97.0338","104.9457","255.3919","0","999","496","0.00084065","0.00015551","0","3771952","0 SPACEBEE-166","1 55092U 23001CM  23035.38604134  .00015551  00000-0  84065-3 0  9992","2 55092  97.4987  97.0338 0019356 104.9457 255.3919 15.14611189  4961","2023-001CM","55092","6900.296","95.074","535.517","508.805","0"
"GENERATED VIA SPACETRACK.ORG API","18 SPCS","55092","SPACEBEE-166","PAYLOAD","U","23001CM","2023-02-04 21:56:58","190496","15.14626214","0.001937","97.4986","97.5547","103.234","257.1054","0","999","504","0.0007622","0.00014097","0","3772514","0 SPACEBEE-166","1 55092U 23001CM  23035.91456239  .00014097  00000-0  76220-3 0  9990","2 55092  97.4986  97.5547 0019370 103.2340 257.1054 15.14626214  5041","2023-001CM","55092","6900.251","95.073","535.481","508.750","0"
"GENERATED VIA SPACETRACK.ORG API","18 SPCS","55092","SPACEBEE-166","PAYLOAD","U","23001CM","2023-02-05 05:52:38","76960","15.14636083","0.0019376","97.4985","97.8802","102.1771","258.1632","0","999","509","0.00072999","0.00013501","0","3773728","0 SPACEBEE-166","1 55092U 23001CM  23036.24488515  .00013501  00000-0  72999-3 0  9997","2 55092  97.4985  97.8802 0019376 102.1771 258.1632 15.14636083  5092","2023-001CM","55092","6900.221","95.072","535.455","508.716","0"
"GENERATED VIA SPACETRACK.ORG API","18 SPCS","55092","SPACEBEE-166","PAYLOAD","U","23001CM","2023-02-05 16:58:33","628224","15.14649807","0.0019413","97.4984","98.336","100.667","259.6749","0","999","516","0.00072979","0.00013503","0","3773983","0 SPACEBEE-166","1 55092U 23001CM  23036.70733366  .00013503  00000-0  72979-3 0  9995","2 55092  97.4984  98.3360 0019413 100.6670 259.6749 15.14649807  5160","2023-001CM","55092","6900.179","95.071","535.439","508.649","0"
"GENERATED VIA SPACETRACK.ORG API","18 SPCS","55092","SPACEBEE-166","PAYLOAD","U","23001CM","2023-02-05 21:43:57","301248","15.1465634","0.0019439","97.4983","98.5314","100.0596","260.2831","0","999","519","0.00076061","0.0001408","0","3774172","0 SPACEBEE-166","1 55092U 23001CM  23036.90552432  .00014080  00000-0  76061-3 0  9997","2 55092  97.4983  98.5314 0019439 100.0596 260.2831 15.14656340  5192","2023-001CM","55092","6900.159","95.071","535.437","508.611","0"
"GENERATED VIA SPACETRACK.ORG API","18 SPCS","55092","SPACEBEE-166","PAYLOAD","U","23001CM","2023-02-06 04:04:28","769952","15.14666795","0.0019436","97.4983","98.7919","99.1644","261.1788","0","999","523","0.00086144","0.00015964","0","3775254","0 SPACEBEE-166","1 55092U 23001CM  23037.16977743  .00015964  00000-0  86144-3 0  9997","2 55092  97.4983  98.7919 0019436  99.1644 261.1788 15.14666795  5235","2023-001CM","55092","6900.127","95.070","535.403","508.581","0"
"GENERATED VIA SPACETRACK.ORG API","18 SPCS","55092","SPACEBEE-166","PAYLOAD","U","23001CM","2023-02-06 16:45:31","269312","15.14686902","0.0019475","97.4982","99.3128","97.4223","262.9223","0","999","531","0.00098614","0.00018301","0","3775775","0 SPACEBEE-166","1 55092U 23001CM  23037.69827858  .00018301  00000-0  98614-3 0  9999","2 55092  97.4982  99.3128 0019475  97.4223 262.9223 15.14686902  5314","2023-001CM","55092","6900.066","95.069","535.369","508.493","0"
"GENERATED VIA SPACETRACK.ORG API","18 SPCS","55092","SPACEBEE-166","PAYLOAD","U","23001CM","2023-02-06 16:45:31","269312","15.14686902","0.0019475","97.4982","99.3128","97.4223","262.9223","0","999","531","0.00098614","0.00018301","0","3776034","0 SPACEBEE-166","1 55092U 23001CM  23037.69827858  .00018301  00000-0  98614-3 0  9999","2 55092  97.4982  99.3128 0019475  97.4223 262.9223 15.14686902  5314","2023-001CM","55092","6900.066","95.069","535.369","508.493","0"
